NORAD_CAT_ID,OBJECT_NAME,OBJECT_TYPE,EPOCH,MEAN_MOTION,ECCENTRICITY,INCLINATION,RA_OF_ASC_NODE,ARG_OF_PERICENTER,MEAN_ANOMALY,BSTAR,MEAN_MOTION_DOT,MEAN_MOTION_DDOT,TLE_LINE0,TLE_LINE1,TLE_LINE2,SEMIMAJOR_AXIS,PERIOD,APOGEE,PERIGEE,DECAYED
53935.0,STARLINK-5000,PAYLOAD,2023-06-04 08:46:57,15.08837957,0.0001081,53.2168,140.0311,86.6729,273.4387,1.1985e-05,-9.7e-07,0.0,0 STARLINK-5000,1 53935U 22119BB  23155.36593815 -.00000097  00000-0  11985-4 0  9991,2 53935  53.2168 140.0311 0001081  86.6729 273.4387 15.08837957 39807,6917.887,95.438,540.499,539.004,0.0
53935.0,STARLINK-5000,PAYLOAD,2023-06-04 18:19:15,15.08838575,0.0001072,53.2167,138.2472,85.0981,275.0134,2.892e-05,1.72e-06,0.0,0 STARLINK-5000,1 53935U 22119BB  23155.76337726  .00000172  00000-0  28920-4 0  9992,2 53935  53.2167 138.2472 0001072  85.0981 275.0134 15.08838575 39441,6917.885,95.438,540.491,539.008,0.0
53935.0,STARLINK-5000,PAYLOAD,2023-06-05 05:26:57,15.08842421,0.0001102,53.2166,136.1655,86.518,273.5939,6.3132e-05,7.17e-06,0.0,0 STARLINK-5000,1 53935U 22119BB  23156.22705331  .00000717  00000-0  63132-4 0  9994,2 53935  53.2166 136.1655 0001102  86.5180 273.5939 15.08842421 39936,6917.873,95.437,540.5,538.976,0.0
53935.0,STARLINK-5000,PAYLOAD,2023-06-05 22:56:12,15.08833329,0.0001132,53.2164,132.8948,85.5922,274.5199,5.8242e-06,-1.95e-06,0.0,0 STARLINK-5000,1 53935U 22119BB  23156.95570219 -.00000195  00000-0  58242-5 0  9997,2 53935  53.2164 132.8948 0001132  85.5922 274.5199 15.08833329 39620,6917.901,95.438,540.549,538.983,0.0
53935.0,STARLINK-5000,PAYLOAD,2023-06-06 05:17:45,15.08835538,0.0001119,53.2165,131.7052,85.8798,274.2322,1.675e-05,-2.1e-07,0.0,0 STARLINK-5000,1 53935U 22119BB  23157.22066127 -.00000021  00000-0  16750-4 0  9991,2 53935  53.2165 131.7052 0001119  85.8798 274.2322 15.08835538 40085,6917.894,95.438,540.533,538.985,0.0
53935.0,STARLINK-5000,PAYLOAD,2023-06-06 21:11:36,15.08836714,0.0001198,53.2167,128.7327,94.1742,265.9387,-2.9812e-06,-3.35e-06,0.0,0 STARLINK-5000,1 53935U 22119BB  23157.88306259 -.00000335  00000-0 -29812-5 0  9999,2 53935  53.2167 128.7327 0001198  94.1742 265.9387 15.08836714 40183,6917.89,95.438,540.584,538.927,0.0
53935.0,STARLINK-5000,PAYLOAD,2023-06-07 05:08:32,15.088397,0.0001311,53.2167,127.2462,103.3463,256.7675,6.6948e-06,-1.81e-06,0.0,0 STARLINK-5000,1 53935U 22119BB  23158.21426089 -.00000181  00000-0  66948-5 0  9990,2 53935  53.2167 127.2462 0001311 103.3463 256.7675 15.08839700 39811,6917.881,95.438,540.653,538.839,0.0
53935.0,STARLINK-5000,PAYLOAD,2023-06-08 01:48:33,15.08833562,0.0001054,53.2169,123.3798,90.3083,269.803,1.9102e-05,1.6e-07,0.0,0 STARLINK-5000,1 53935U 22119BB  23159.07538712  .00000016  00000-0  19102-4 0  9997,2 53935  53.2169 123.3798 0001054  90.3083 269.8030 15.08833562 39943,6917.9,95.438,540.494,539.036,0.0
53935.0,STARLINK-5000,PAYLOAD,2023-06-08 06:34:42,15.08835347,0.0001061,53.2169,122.4877,89.9329,270.1784,3.2707e-05,2.33e-06,0.0,0 STARLINK-5000,1 53935U 22119BB  23159.27410635  .00000233  00000-0  32707-4 0  9999,2 53935  53.2169 122.4877 0001061  89.9329 270.1784 15.08835347 40391,6917.895,95.438,540.494,539.026,0.0
53935.0,STARLINK-5000,PAYLOAD,2023-06-08 14:31:38,15.08836395,0.0001046,53.2169,121.0011,90.9188,269.1924,3.9638e-05,3.43e-06,0.0,0 STARLINK-5000,1 53935U 22119BB  23159.60530626  .00000343  00000-0  39638-4 0  9991,2 53935  53.2169 121.0011 0001046  90.9188 269.1924 15.08836395 40448,6917.891,95.438,540.48,539.033,0.0
53935.0,STARLINK-5000,PAYLOAD,2023-06-09 06:25:29,15.0884428,0.0001047,53.2172,118.0262,90.6796,269.4316,7.5786e-05,9.19e-06,0.0,0 STARLINK-5000,1 53935U 22119BB  23160.26770032  .00000919  00000-0  75786-4 0  9995,2 53935  53.2172 118.0262 0001047  90.6796 269.4316 15.08844280 40124,6917.867,95.437,540.457,539.008,0.0
53935.0,STARLINK-5000,PAYLOAD,2023-06-09 20:43:58,15.08825869,0.0001103,53.2173,115.3503,91.6036,268.5082,0.00018643,2.679e-05,0.0,0 STARLINK-5000,1 53935U 22119BB  23160.86386647  .00002679  00000-0  18643-3 0  9999,2 53935  53.2173 115.3503 0001103  91.6036 268.5082 15.08825869 40632,6917.924,95.438,540.552,539.026,0.0
53935.0,STARLINK-5000,PAYLOAD,2023-06-10 03:05:30,15.08835785,0.000108,53.2172,114.1608,90.0254,270.0862,2.4089e-05,9.6e-07,0.0,0 STARLINK-5000,1 53935U 22119BB  23161.12882839  .00000096  00000-0  24089-4 0  9996,2 53935  53.2172 114.1608 0001080  90.0254 270.0862 15.08835785 40253,6917.893,95.438,540.505,539.011,0.0
53935.0,STARLINK-5000,PAYLOAD,2023-06-10 06:16:16,15.08840333,0.000117,53.2172,113.5659,89.0483,271.0643,5.9395e-05,6.58e-06,0.0,0 STARLINK-5000,1 53935U 22119BB  23161.26130476  .00000658  00000-0  59395-4 0  9996,2 53935  53.2172 113.5659 0001170  89.0483 271.0643 15.08840333 40695,6917.879,95.438,540.554,538.935,0.0
53935.0,STARLINK-5000,PAYLOAD,2023-06-10 20:34:45,15.08845595,0.0001392,53.2174,110.8894,86.2059,273.9092,-0.00013581,-2.449e-05,0.0,0 STARLINK-5000,1 53935U 22119BB  23161.85746907 -.00002449  00000-0 -13581-3 0  9991,2 53935  53.2174 110.8894 0001392  86.2059 273.9092 15.08845595 40786,6917.863,95.437,540.691,538.765,0.0
53935.0,STARLINK-5000,PAYLOAD,2023-06-11 02:56:17,15.08845072,0.0001284,53.2175,109.7001,87.245,272.869,-6.2231e-05,-1.278e-05,0.0,0 STARLINK-5000,1 53935U 22119BB  23162.12242599 -.00001278  00000-0 -62231-4 0  9996,2 53935  53.2175 109.7001 0001284  87.2450 272.8690 15.08845072 40401,6917.865,95.437,540.618,538.842,0.0
53935.0,STARLINK-5000,PAYLOAD,2023-06-11 14:03:59,15.08844009,0.0001201,53.218,107.6189,90.8593,269.2537,-4.3421e-06,-3.57e-06,0.0,0 STARLINK-5000,1 53935U 22119BB  23162.58610466 -.00000357  00000-0 -43421-5 0  9996,2 53935  53.2180 107.6189 0001201  90.8593 269.2537 15.08844009 40890,6917.868,95.437,540.564,538.902,0.0
53935.0,STARLINK-5000,PAYLOAD,2023-06-12 05:57:50,15.08842345,0.0001205,53.2181,104.6457,88.7351,271.3779,6.4761e-05,7.43e-06,0.0,0 STARLINK-5000,1 53935U 22119BB  23163.24850328  .00000743  00000-0  64761-4 0  9999,2 53935  53.2181 104.6457 0001205  88.7351 271.3779 15.08842345 40576,6917.873,95.437,540.572,538.905,0.0
53935.0,STARLINK-5000,PAYLOAD,2023-06-13 02:37:52,15.08839922,0.0001434,53.2186,100.776,103.7023,256.4129,-3.6916e-05,-8.75e-06,0.0,0 STARLINK-5000,1 53935U 22119BB  23164.10962973 -.00000875  00000-0 -36916-4 0  9994,2 53935  53.2186 100.7760 0001434 103.7023 256.4129 15.08839922 40708,6917.881,95.438,540.738,538.754,0.0
53935.0,STARLINK-5000,PAYLOAD,2023-06-13 05:48:38,15.08844806,0.0001422,53.2188,100.1843,101.2942,258.821,-0.00019174,-3.339e-05,0.0,0 STARLINK-5000,1 53935U 22119BB  23164.24211081 -.00003339  00000-0 -19174-3 0  9990,2 53935  53.2188 100.1843 0001422 101.2942 258.8210 15.08844806 41149,6917.866,95.437,540.714,538.747,0.0
53935.0,STARLINK-5000,PAYLOAD,2023-06-14 05:39:24,15.08844787,0.0001162,53.2185,95.7242,102.9104,257.2018,-3.0926e-06,-3.37e-06,0.0,0 STARLINK-5000,1 53935U 22119BB  23165.23570543 -.00000337  00000-0 -30926-5 0  9996,2 53935  53.2185  95.7242 0001162 102.9104 257.2018 15.08844787 40873,6917.866,95.437,540.535,538.927,0.0
53935.0,STARLINK-5000,PAYLOAD,2023-06-15 02:19:26,15.08833683,0.000104,53.2184,91.8595,90.1262,269.985,-1.438e-05,-5.17e-06,0.0,0 STARLINK-5000,1 53935U 22119BB  23166.09683679 -.00000517  00000-0 -14380-4 0  9991,2 53935  53.2184  91.8595 0001040  90.1262 269.9850 15.08833683 41001,6917.9,95.438,540.484,539.045,0.0
53935.0,STARLINK-5000,PAYLOAD,2023-06-15 18:13:18,15.08834409,0.0001612,53.2169,88.887,99.6663,260.4511,3.128e-05,2.1e-06,0.0,0 STARLINK-5000,1 53935U 22119BB  23166.75923703  .00000210  00000-0  31280-4 0  9995,2 53935  53.2169  88.8870 0001612  99.6663 260.4511 15.08834409 41524,6917.897,95.438,540.878,538.647,0.0
53935.0,STARLINK-5000,PAYLOAD,2023-06-16 00:34:50,15.08843565,0.0001199,53.2183,87.6982,99.5537,260.5591,1.3056e-05,-8e-07,0.0,0 STARLINK-5000,1 53935U 22119BB  23167.02419262 -.00000080  00000-0  13056-4 0  9993,2 53935  53.2183  87.6982 0001199  99.5537 260.5591 15.08843565 41140,6917.869,95.437,540.564,538.905,0.0
53935.0,STARLINK-5000,PAYLOAD,2023-06-16 03:45:35,15.08851978,0.0001104,53.2182,87.102,92.752,267.3599,8.1099e-05,1.004e-05,0.0,0 STARLINK-5000,1 53935U 22119BB  23167.15666476  .00001004  00000-0  81099-4 0  9996,2 53935  53.2182  87.1020 0001104  92.7520 267.3599 15.08851978 41162,6917.844,95.437,540.473,538.945,0.0
53935.0,STARLINK-5000,PAYLOAD,2023-06-16 11:42:31,15.08850005,0.000123,53.219,85.6156,84.2543,275.859,3.8016e-05,3.17e-06,0.0,0 STARLINK-5000,1 53935U 22119BB  23167.48786648  .00000317  00000-0  38016-4 0  9993,2 53935  53.2190  85.6156 0001230  84.2543 275.8590 15.08850005 41632,6917.85,95.437,540.566,538.864,0.0
53935.0,STARLINK-5000,PAYLOAD,2023-06-16 22:50:13,15.08806424,0.0001366,53.2193,83.5315,63.8777,296.2356,0.00054053,8.317e-05,0.0,0 STARLINK-5000,1 53935U 22119BB  23167.95155055  .00008317  00000-0  54053-3 0  9993,2 53935  53.2193  83.5315 0001366  63.8777 296.2356 15.08806424 41285,6917.983,95.44,540.793,538.903,0.0
53935.0,STARLINK-5000,PAYLOAD,2023-06-17 03:36:22,15.08848425,9.47e-05,53.219,82.64,53.4993,306.6086,0.00014431,2.01e-05,0.0,0 STARLINK-5000,1 53935U 22119BB  23168.15026343  .00002010  00000-0  14431-3 0  9993,2 53935  53.2190  82.6400 0000947  53.4993 306.6086 15.08848425 41313,6917.855,95.437,540.375,539.065,0.0
53935.0,STARLINK-5000,PAYLOAD,2023-06-17 11:33:19,15.08832664,8.58e-05,53.2183,81.1557,100.7112,259.3977,8.9238e-06,-1.46e-06,0.0,0 STARLINK-5000,1 53935U 22119BB  23168.48147576 -.00000146  00000-0  89238-5 0  9999,2 53935  53.2183  81.1557 0000858 100.7112 259.3977 15.08832664 41784,6917.903,95.438,540.361,539.174,0.0
53935.0,STARLINK-5000,PAYLOAD,2023-06-18 00:16:25,15.08831911,0.0001122,53.2189,78.7731,98.6698,261.4422,-0.00015317,-2.724e-05,0.0,0 STARLINK-5000,1 53935U 22119BB  23169.01140533 -.00002724  00000-0 -15317-3 0  9995,2 53935  53.2189  78.7731 0001122  98.6698 261.4422 15.08831911 41441,6917.905,95.438,540.546,538.994,0.0
